NORAD_CAT_ID,OBJECT_NAME,OBJECT_TYPE,EPOCH,MEAN_MOTION,ECCENTRICITY,INCLINATION,RA_OF_ASC_NODE,ARG_OF_PERICENTER,MEAN_ANOMALY,BSTAR,MEAN_MOTION_DOT,MEAN_MOTION_DDOT,TLE_LINE0,TLE_LINE1,TLE_LINE2,SEMIMAJOR_AXIS,PERIOD,APOGEE,PERIGEE,DECAYED
51870.0,STARLINK-3591,PAYLOAD,2023-02-16 02:08:26,15.08885619,0.0001036,53.2156,346.2232,66.5873,293.5228,0.0040162,0.00064293,0.0,0 STARLINK-3591,1 51870U 22022U   23047.08919788  .00064293  00000-0  40162-2 0  9994,2 51870  53.2156 346.2232 0001036  66.5873 293.5228 15.08885619 54441,6917.741,95.435,540.323,538.889,0.0
51870.0,STARLINK-3591,PAYLOAD,2023-02-16 13:16:08,15.0887052,0.0001349,53.2168,344.1411,74.8135,285.3006,0.0038853,0.00062144,0.0,0 STARLINK-3591,1 51870U 22022U   23047.55287570  .00062144  00000-0  38853-2 0  9990,2 51870  53.2168 344.1411 0001349  74.8135 285.3006 15.08870520 54516,6917.787,95.436,540.585,538.719,0.0
51870.0,STARLINK-3591,PAYLOAD,2023-02-17 05:10:00,15.08840906,0.0001563,53.2164,341.1664,102.6699,257.4468,0.0021557,0.00034188,0.0,0 STARLINK-3591,1 51870U 22022U   23048.21528577  .00034188  00000-0  21557-2 0  9999,2 51870  53.2164 341.1664 0001563 102.6699 257.4468 15.08840906 54610,6917.878,95.437,540.824,538.661,0.0
51870.0,STARLINK-3591,PAYLOAD,2023-02-18 00:14:39,15.088282,0.0001346,53.2165,337.6004,62.9583,297.1546,0.001811,0.00028642,0.0,0 STARLINK-3591,1 51870U 22022U   23049.01018506  .00028642  00000-0  18110-2 0  9993,2 51870  53.2165 337.6004 0001346  62.9583 297.1546 15.08828200 54732,6917.916,95.438,540.713,538.85,0.0
51870.0,STARLINK-3591,PAYLOAD,2023-02-18 01:50:03,15.08822761,0.0001412,53.2171,337.3009,80.6034,279.5118,0.0013436,0.0002115,0.0,0 STARLINK-3591,1 51870U 22022U   23049.07642566  .00021150  00000-0  13436-2 0  9991,2 51870  53.2171 337.3009 0001412  80.6034 279.5118 15.08822761 54749,6917.933,95.439,540.775,538.821,0.0
51870.0,STARLINK-3591,PAYLOAD,2023-02-19 01:40:49,15.08884941,0.0001434,53.2172,332.8417,74.4441,285.671,0.0018605,0.00029483,0.0,0 STARLINK-3591,1 51870U 22022U   23050.07001525  .00029483  00000-0  18605-2 0  9997,2 51870  53.2172 332.8417 0001434  74.4441 285.6710 15.08884941 54890,6917.743,95.435,540.6,538.616,0.0
51870.0,STARLINK-3591,PAYLOAD,2023-02-19 11:13:07,15.08880296,0.0001094,53.217,331.0567,54.6748,305.4346,0.001651,0.00026114,0.0,0 STARLINK-3591,1 51870U 22022U   23050.46744671  .00026114  00000-0  16510-2 0  9997,2 51870  53.2170 331.0567 0001094  54.6748 305.4346 15.08880296 54959,6917.757,95.435,540.379,538.865,0.0
51870.0,STARLINK-3591,PAYLOAD,2023-02-19 23:56:12,15.08860373,0.0001131,53.217,328.6793,82.0932,278.0188,0.0013987,0.00022055,0.0,0 STARLINK-3591,1 51870U 22022U   23050.99736510  .00022055  00000-0  13987-2 0  9993,2 51870  53.2170 328.6793 0001131  82.0932 278.0188 15.08860373 55037,6917.818,95.436,540.466,538.901,0.0
51870.0,STARLINK-3591,PAYLOAD,2023-02-20 11:03:54,15.08859761,0.0001479,53.2173,326.597,90.5616,269.5546,0.00085841,0.00013407,0.0,0 STARLINK-3591,1 51870U 22022U   23051.46104455  .00013407  00000-0  85841-3 0  9993,2 51870  53.2173 326.5970 0001479  90.5616 269.5546 15.08859761 55102,6917.82,95.436,540.708,538.662,0.0
51870.0,STARLINK-3591,PAYLOAD,2023-02-20 22:11:36,15.08845881,0.0001033,53.217,324.5154,100.7613,259.3495,0.00088909,0.00013892,0.0,0 STARLINK-3591,1 51870U 22022U   23051.92472422  .00013892  00000-0  88909-3 0  9992,2 51870  53.2170 324.5154 0001033 100.7613 259.3495 15.08845881 55173,6917.862,95.437,540.442,539.013,0.0
51870.0,STARLINK-3591,PAYLOAD,2023-02-21 10:54:41,15.08847351,0.0001577,53.2155,322.1359,84.6227,275.4945,0.000464,7.106e-05,0.0,0 STARLINK-3591,1 51870U 22022U   23052.45464415  .00007106  00000-0  46400-3 0  9995,2 51870  53.2155 322.1359 0001577  84.6227 275.4945 15.08847351 55253,6917.858,95.437,540.814,538.632,0.0
51870.0,STARLINK-3591,PAYLOAD,2023-02-22 02:48:32,15.08854342,0.0001429,53.2162,319.1622,83.4342,276.6813,0.00024024,3.539e-05,0.0,0 STARLINK-3591,1 51870U 22022U   23053.11703871  .00003539  00000-0  24024-3 0  9995,2 51870  53.2162 319.1622 0001429  83.4342 276.6813 15.08854342 55357,6917.837,95.437,540.69,538.713,0.0
51870.0,STARLINK-3591,PAYLOAD,2023-02-22 17:07:01,15.08826404,0.0001317,53.2174,316.485,95.7275,264.3867,-0.00014017,-2.517e-05,0.0,0 STARLINK-3591,1 51870U 22022U   23053.71321257 -.00002517  00000-0 -14017-3 0  9993,2 51870  53.2174 316.4850 0001317  95.7275 264.3867 15.08826404 55441,6917.922,95.438,540.698,538.876,0.0
51870.0,STARLINK-3591,PAYLOAD,2023-02-22 21:53:10,15.08831491,0.0001352,53.2171,315.5932,102.2404,257.8739,-1.0604e-05,-4.57e-06,0.0,0 STARLINK-3591,1 51870U 22022U   23053.91193152 -.00000457  00000-0 -10604-4 0  9996,2 51870  53.2171 315.5932 0001352 102.2404 257.8739 15.08831491 55476,6917.906,95.438,540.707,538.836,0.0
51870.0,STARLINK-3591,PAYLOAD,2023-02-23 02:39:20,15.08830421,0.0001335,53.215,314.7018,80.7822,279.3321,0.00023313,3.423e-05,0.0,0 STARLINK-3591,1 51870U 22022U   23054.11065483  .00003423  00000-0  23313-3 0  9998,2 51870  53.2150 314.7018 0001335  80.7822 279.3321 15.08830421 55506,6917.91,95.438,540.698,538.851,0.0
51870.0,STARLINK-3591,PAYLOAD,2023-02-24 02:30:06,15.08876439,0.0001497,53.2151,310.2403,80.4156,279.7005,0.0014665,0.00023152,0.0,0 STARLINK-3591,1 51870U 22022U   23055.10424657  .00023152  00000-0  14665-2 0  9990,2 51870  53.2151 310.2403 0001497  80.4156 279.7005 15.08876439 55650,6917.769,95.435,540.67,538.598,0.0
51870.0,STARLINK-3591,PAYLOAD,2023-02-24 23:10:07,15.08852362,0.0001296,53.2149,306.3751,89.5043,270.6098,0.00043798,6.692e-05,0.0,0 STARLINK-3591,1 51870U 22022U   23055.96536686  .00006692  00000-0  43798-3 0  9990,2 51870  53.2149 306.3751 0001296  89.5043 270.6098 15.08852362 55786,6917.843,95.437,540.604,538.811,0.0
51870.0,STARLINK-3591,PAYLOAD,2023-02-25 02:20:54,15.08848591,0.0001365,53.215,305.7809,89.6344,270.4805,0.00099854,0.00015643,0.0,0 STARLINK-3591,1 51870U 22022U   23056.09784794  .00015643  00000-0  99854-3 0  9990,2 51870  53.2150 305.7809 0001365  89.6344 270.4805 15.08848591 55803,6917.854,95.437,540.663,538.775,0.0
51870.0,STARLINK-3591,PAYLOAD,2023-02-25 23:00:55,15.0884239,0.0001342,53.2154,301.9133,89.9595,270.1551,0.00056015,8.639e-05,0.0,0 STARLINK-3591,1 51870U 22022U   23056.95897218  .00008639  00000-0  56015-3 0  9990,2 51870  53.2154 301.9133 0001342  89.9595 270.1551 15.08842390 55931,6917.873,95.437,540.666,538.81,0.0
51870.0,STARLINK-3591,PAYLOAD,2023-02-26 02:11:41,15.08847575,0.0001368,53.2153,301.3184,90.6346,269.4803,0.00031,4.65e-05,0.0,0 STARLINK-3591,1 51870U 22022U   23057.09144946  .00004650  00000-0  31000-3 0  9995,2 51870  53.2153 301.3184 0001368  90.6346 269.4803 15.08847575 55954,6917.857,95.437,540.669,538.776,0.0
51870.0,STARLINK-3591,PAYLOAD,2023-02-27 02:02:27,15.08863734,0.0001309,53.2153,296.8579,82.8645,277.2496,0.00067288,0.00010444,0.0,0 STARLINK-3591,1 51870U 22022U   23058.08504289  .00010444  00000-0  67288-3 0  9990,2 51870  53.2153 296.8579 0001309  82.8645 277.2496 15.08863734 56108,6917.808,95.436,540.578,538.767,0.0
51870.0,STARLINK-3591,PAYLOAD,2023-02-27 16:20:55,15.08863975,0.0001321,53.2152,294.1803,99.7062,260.408,0.00059396,9.184e-05,0.0,0 STARLINK-3591,1 51870U 22022U   23058.68119978  .00009184  00000-0  59396-3 0  9993,2 51870  53.2152 294.1803 0001321  99.7062 260.4080 15.08863975 56191,6917.807,95.436,540.586,538.758,0.0
51870.0,STARLINK-3591,PAYLOAD,2023-02-27 22:42:27,15.08875758,0.000325,53.2153,292.9914,98.1208,262.0153,0.00074317,0.00011571,0.0,0 STARLINK-3591,1 51870U 22022U   23058.94615382  .00011571  00000-0  74317-3 0  9995,2 51870  53.2153 292.9914 0003250  98.1208 262.0153 15.08875758 56235,6917.771,95.435,541.884,537.388,0.0
51870.0,STARLINK-3591,PAYLOAD,2023-02-28 01:53:13,15.08884555,0.0001208,53.215,292.3977,99.6229,260.49,0.0014348,0.00022648,0.0,0 STARLINK-3591,1 51870U 22022U   23059.07863166  .00022648  00000-0  14348-2 0  9999,2 51870  53.2150 292.3977 0001208  99.6229 260.4900 15.08884555 56254,6917.744,95.435,540.445,538.774,0.0
51870.0,STARLINK-3591,PAYLOAD,2023-02-28 16:11:43,15.08810014,0.0001039,53.2152,289.7219,135.1854,224.9222,0.00016269,2.3e-05,0.0,0 STARLINK-3591,1 51870U 22022U   23059.67481039  .00002300  00000-0  16269-3 0  9998,2 51870  53.2152 289.7219 0001039 135.1854 224.9222 15.08810014 56348,6917.972,95.439,540.556,539.118,0.0
51870.0,STARLINK-3591,PAYLOAD,2023-02-28 20:57:53,15.08797328,8.52e-05,53.2145,288.8296,133.6372,226.4691,0.00016196,2.288e-05,0.0,0 STARLINK-3591,1 51870U 22022U   23059.87353718  .00002288  00000-0  16196-3 0  9996,2 51870  53.2145 288.8296 0000852 133.6372 226.4691 15.08797328 56377,6918.011,95.44,540.465,539.286,0.0
51870.0,STARLINK-3591,PAYLOAD,2023-03-01 01:44:03,15.08805192,0.000112,53.215,287.9369,126.7231,233.3865,-0.00030745,-5.173e-05,0.0,0 STARLINK-3591,1 51870U 22022U   23060.07226159 -.00005173  00000-0 -30745-3 0  9992,2 51870  53.2150 287.9369 0001120 126.7231 233.3865 15.08805192 56403,6917.987,95.44,540.627,539.077,0.0
51870.0,STARLINK-3591,PAYLOAD,2023-03-01 20:48:41,15.08826774,9.47e-05,53.2142,284.369,127.5884,232.5195,0.00036867,5.582e-05,0.0,0 STARLINK-3591,1 51870U 22022U   23060.86715013  .00005582  00000-0  36867-3 0  9994,2 51870  53.2142 284.3690 0000947 127.5884 232.5195 15.08826774 56520,6917.921,95.438,540.441,539.131,0.0
51870.0,STARLINK-3591,PAYLOAD,2023-03-01 23:59:28,15.08834623,9.92e-05,53.2144,283.7749,135.8823,224.2249,0.0010159,0.00015915,0.0,0 STARLINK-3591,1 51870U 22022U   23060.99963348  .00015915  00000-0  10159-2 0  9990,2 51870  53.2144 283.7749 0000992 135.8823 224.2249 15.08834623 56547,6917.897,95.438,540.448,539.076,0.0
51870.0,STARLINK-3591,PAYLOAD,2023-03-02 19:04:05,15.08866636,9.33e-05,53.2146,280.2061,135.8049,224.3018,0.0011221,0.00017628,0.0,0 STARLINK-3591,1 51870U 22022U   23061.79450571  .00017628  00000-0  11221-2 0  9992,2 51870  53.2146 280.2061 0000933 135.8049 224.3018 15.08866636 56660,6917.799,95.436,540.309,539.019,0.0
